[{"OBJECT_NAME":"LUSAT (LO-19)","OBJECT_ID":"1990-005G","EPOCH":"2026-03-09T14:54:14.260896","MEAN_MOTION":14.34087969,"ECCENTRICITY":0.001234,"INCLINATION":98.8938,"RA_OF_ASC_NODE":87.6461,"ARG_OF_PERICENTER":134.6824,"MEAN_ANOMALY":225.5367,"EPHEMERIS_TYPE":0,"CLASSIFICATION_TYPE":"U","NORAD_CAT_ID":20442,"ELEMENT_SET_NO":999,"REV_AT_EPOCH":88812,"BSTAR":8.4338e-5,"MEAN_MOTION_DOT":1.89e-6,"MEAN_MOTION_DDOT":0},{"OBJECT_NAME":"CZ-6A DEB","OBJECT_ID":"2024-140QL","EPOCH":"2026-03-09T12:38:18.057696","MEAN_MOTION":14.54018815,"ECCENTRICITY":0.01057047,"INCLINATION":88.8301,"RA_OF_ASC_NODE":270.5358,"ARG_OF_PERICENTER":234.6708,"MEAN_ANOMALY":124.4584,"EPHEMERIS_TYPE":0,"CLASSIFICATION_TYPE":"U","NORAD_CAT_ID":61142,"ELEMENT_SET_NO":999,"REV_AT_EPOCH":8195,"BSTAR":0.00033810132,"MEAN_MOTION_DOT":1.552e-5,"MEAN_MOTION_DDOT":0}]
